CCSDS_OMM_VERS = 2.0
CREATION_DATE  = 
ORIGINATOR     = 

OBJECT_NAME    = UNKNOWN
OBJECT_ID      = 
CENTER_NAME    = EARTH
REF_FRAME      = TEME
TIME_SYSTEM    = UTC
MEAN_ELEMENT_THEORY = SGP/SGP4

EPOCH          = 2025-11-15T13:17:57.789312
MEAN_MOTION    = 14.36170170
ECCENTRICITY   = .0014016
INCLINATION    = 74.0493
RA_OF_ASC_NODE = 64.4739
ARG_OF_PERICENTER = 133.4339
MEAN_ANOMALY   = 226.7983

EPHEMERIS_TYPE = 0
CLASSIFICATION_TYPE = U
NORAD_CAT_ID   = 89003
ELEMENT_SET_NO = 999
REV_AT_EPOCH   = 62764
BSTAR          = .25466E-3
MEAN_MOTION_DOT = .717E-5
MEAN_MOTION_DDOT = 0

CCSDS_OMM_VERS = 2.0
CREATION_DATE  = 
ORIGINATOR     = 

OBJECT_NAME    = UNKNOWN
OBJECT_ID      = 
CENTER_NAME    = EARTH
REF_FRAME      = TEME
TIME_SYSTEM    = UTC
MEAN_ELEMENT_THEORY = SGP/SGP4

EPOCH          = 2025-11-17T06:29:07.605888
MEAN_MOTION    = 14.45409329
ECCENTRICITY   = .0193059
INCLINATION    = 97.8403
RA_OF_ASC_NODE = 152.3286
ARG_OF_PERICENTER = 109.8958
MEAN_ANOMALY   = 252.3151

EPHEMERIS_TYPE = 0
CLASSIFICATION_TYPE = U
NORAD_CAT_ID   = 89005
ELEMENT_SET_NO = 999
REV_AT_EPOCH   = 53041
BSTAR          = .99228E-3
MEAN_MOTION_DOT = .4353E-4
MEAN_MOTION_DDOT = 0

CCSDS_OMM_VERS = 2.0
CREATION_DATE  = 
ORIGINATOR     = 

OBJECT_NAME    = UNKNOWN
OBJECT_ID      = 
CENTER_NAME    = EARTH
REF_FRAME      = TEME
TIME_SYSTEM    = UTC
MEAN_ELEMENT_THEORY = SGP/SGP4

EPOCH          = 2025-11-16T10:49:22.096416
MEAN_MOTION    = 14.93981842
ECCENTRICITY   = .0024272
INCLINATION    = 98.0491
RA_OF_ASC_NODE = 219.0434
ARG_OF_PERICENTER = 53.3972
MEAN_ANOMALY   = 306.9475

EPHEMERIS_TYPE = 0
CLASSIFICATION_TYPE = U
NORAD_CAT_ID   = 89029
ELEMENT_SET_NO = 999
REV_AT_EPOCH   = 64715
BSTAR          = .92667E-3
MEAN_MOTION_DOT = .9879E-4
MEAN_MOTION_DDOT = 0

CCSDS_OMM_VERS = 2.0
CREATION_DATE  = 
ORIGINATOR     = 

OBJECT_NAME    = UNKNOWN
OBJECT_ID      = 
CENTER_NAME    = EARTH
REF_FRAME      = TEME
TIME_SYSTEM    = UTC
MEAN_ELEMENT_THEORY = SGP/SGP4

EPOCH          = 2025-11-17T14:58:44.679072
MEAN_MOTION    = 13.03998502
ECCENTRICITY   = .0146637
INCLINATION    = 100.4592
RA_OF_ASC_NODE = 259.1299
ARG_OF_PERICENTER = 163.7934
MEAN_ANOMALY   = 196.7934

EPHEMERIS_TYPE = 0
CLASSIFICATION_TYPE = U
NORAD_CAT_ID   = 89101
ELEMENT_SET_NO = 999
REV_AT_EPOCH   = 55157
BSTAR          = -.64297E-3
MEAN_MOTION_DOT = -.258E-5
MEAN_MOTION_DDOT = 0

CCSDS_OMM_VERS = 2.0
CREATION_DATE  = 
ORIGINATOR     = 

OBJECT_NAME    = UNKNOWN
OBJECT_ID      = 
CENTER_NAME    = EARTH
REF_FRAME      = TEME
TIME_SYSTEM    = UTC
MEAN_ELEMENT_THEORY = SGP/SGP4

EPOCH          = 2025-11-10T08:55:15.821760
MEAN_MOTION    = 8.86217925
ECCENTRICITY   = .2929063
INCLINATION    = 63.3757
RA_OF_ASC_NODE = 87.9552
ARG_OF_PERICENTER = 319.6986
MEAN_ANOMALY   = 21.9360

EPHEMERIS_TYPE = 0
CLASSIFICATION_TYPE = U
NORAD_CAT_ID   = 89132
ELEMENT_SET_NO = 999
REV_AT_EPOCH   = 32224
BSTAR          = .38444E-2
MEAN_MOTION_DOT = .277E-4
MEAN_MOTION_DDOT = 0

CCSDS_OMM_VERS = 2.0
CREATION_DATE  = 
ORIGINATOR     = 

OBJECT_NAME    = UNKNOWN
OBJECT_ID      = 
CENTER_NAME    = EARTH
REF_FRAME      = TEME
TIME_SYSTEM    = UTC
MEAN_ELEMENT_THEORY = SGP/SGP4

EPOCH          = 2025-11-17T14:41:02.288256
MEAN_MOTION    = 14.62757307
ECCENTRICITY   = .0094512
INCLINATION    = 98.2448
RA_OF_ASC_NODE = 250.3523
ARG_OF_PERICENTER = 133.1933
MEAN_ANOMALY   = 227.7214

EPHEMERIS_TYPE = 0
CLASSIFICATION_TYPE = U
NORAD_CAT_ID   = 89146
ELEMENT_SET_NO = 999
REV_AT_EPOCH   = 62520
BSTAR          = .94404E-3
MEAN_MOTION_DOT = .5083E-4
MEAN_MOTION_DDOT = 0

CCSDS_OMM_VERS = 2.0
CREATION_DATE  = 
ORIGINATOR     = 

OBJECT_NAME    = UNKNOWN
OBJECT_ID      = 
CENTER_NAME    = EARTH
REF_FRAME      = TEME
TIME_SYSTEM    = UTC
MEAN_ELEMENT_THEORY = SGP/SGP4

EPOCH          = 2025-11-17T11:49:11.569728
MEAN_MOTION    = 15.34931663
ECCENTRICITY   = .0041769
INCLINATION    = 97.6623
RA_OF_ASC_NODE = 336.1403
ARG_OF_PERICENTER = 149.0721
MEAN_ANOMALY   = 211.2995

EPHEMERIS_TYPE = 0
CLASSIFICATION_TYPE = U
NORAD_CAT_ID   = 89161
ELEMENT_SET_NO = 999
REV_AT_EPOCH   = 54470
BSTAR          = .27608E-2
MEAN_MOTION_DOT = .97205E-3
MEAN_MOTION_DDOT = 0

CCSDS_OMM_VERS = 2.0
CREATION_DATE  = 
ORIGINATOR     = 

OBJECT_NAME    = UNKNOWN
OBJECT_ID      = 
CENTER_NAME    = EARTH
REF_FRAME      = TEME
TIME_SYSTEM    = UTC
MEAN_ELEMENT_THEORY = SGP/SGP4

EPOCH          = 2025-11-06T13:25:17.304384
MEAN_MOTION    = 14.44728547
ECCENTRICITY   = .0299972
INCLINATION    = 82.0637
RA_OF_ASC_NODE = 255.8555
ARG_OF_PERICENTER = 32.7390
MEAN_ANOMALY   = 329.2000

EPHEMERIS_TYPE = 0
CLASSIFICATION_TYPE = U
NORAD_CAT_ID   = 89172
ELEMENT_SET_NO = 999
REV_AT_EPOCH   = 59666
BSTAR          = .50523E-2
MEAN_MOTION_DOT = .30689E-3
MEAN_MOTION_DDOT = 0

CCSDS_OMM_VERS = 2.0
CREATION_DATE  = 
ORIGINATOR     = 

OBJECT_NAME    = UNKNOWN
OBJECT_ID      = 
CENTER_NAME    = EARTH
REF_FRAME      = TEME
TIME_SYSTEM    = UTC
MEAN_ELEMENT_THEORY = SGP/SGP4

EPOCH          = 2025-11-14T14:52:05.220768
MEAN_MOTION    = 13.73719805
ECCENTRICITY   = .0031442
INCLINATION    = 82.9185
RA_OF_ASC_NODE = 289.9724
ARG_OF_PERICENTER = 219.0179
MEAN_ANOMALY   = 140.8708

EPHEMERIS_TYPE = 0
CLASSIFICATION_TYPE = U
NORAD_CAT_ID   = 89177
ELEMENT_SET_NO = 999
REV_AT_EPOCH   = 5896
BSTAR          = .15739E-3
MEAN_MOTION_DOT = .162E-5
MEAN_MOTION_DDOT = 0

CCSDS_OMM_VERS = 2.0
CREATION_DATE  = 
ORIGINATOR     = 

OBJECT_NAME    = UNKNOWN
OBJECT_ID      = 
CENTER_NAME    = EARTH
REF_FRAME      = TEME
TIME_SYSTEM    = UTC
MEAN_ELEMENT_THEORY = SGP/SGP4

EPOCH          = 2025-11-14T05:26:47.905440
MEAN_MOTION    = 13.81540712
ECCENTRICITY   = .0129506
INCLINATION    = 99.2164
RA_OF_ASC_NODE = 229.9572
ARG_OF_PERICENTER = 232.7148
MEAN_ANOMALY   = 126.2141

EPHEMERIS_TYPE = 0
CLASSIFICATION_TYPE = U
NORAD_CAT_ID   = 89183
ELEMENT_SET_NO = 999
REV_AT_EPOCH   = 60303
BSTAR          = .87747E-3
MEAN_MOTION_DOT = .953E-5
MEAN_MOTION_DDOT = 0

CCSDS_OMM_VERS = 2.0
CREATION_DATE  = 
ORIGINATOR     = 

OBJECT_NAME    = UNKNOWN
OBJECT_ID      = 
CENTER_NAME    = EARTH
REF_FRAME      = TEME
TIME_SYSTEM    = UTC
MEAN_ELEMENT_THEORY = SGP/SGP4

EPOCH          = 2025-11-17T09:35:46.747104
MEAN_MOTION    = 14.79428308
ECCENTRICITY   = .000809
INCLINATION    = 98.3906
RA_OF_ASC_NODE = 184.9894
ARG_OF_PERICENTER = 214.1178
MEAN_ANOMALY   = 145.9512

EPHEMERIS_TYPE = 0
CLASSIFICATION_TYPE = U
NORAD_CAT_ID   = 89184
ELEMENT_SET_NO = 999
REV_AT_EPOCH   = 48842
BSTAR          = .50183E-2
MEAN_MOTION_DOT = .3761E-3
MEAN_MOTION_DDOT = 0

CCSDS_OMM_VERS = 2.0
CREATION_DATE  = 
ORIGINATOR     = 

OBJECT_NAME    = UNKNOWN
OBJECT_ID      = 
CENTER_NAME    = EARTH
REF_FRAME      = TEME
TIME_SYSTEM    = UTC
MEAN_ELEMENT_THEORY = SGP/SGP4

EPOCH          = 2025-11-17T09:24:21.103488
MEAN_MOTION    = 13.91554302
ECCENTRICITY   = .0227174
INCLINATION    = 98.7806
RA_OF_ASC_NODE = 195.8652
ARG_OF_PERICENTER = 195.9547
MEAN_ANOMALY   = 163.4375

EPHEMERIS_TYPE = 0
CLASSIFICATION_TYPE = U
NORAD_CAT_ID   = 89213
ELEMENT_SET_NO = 999
REV_AT_EPOCH   = 44914
BSTAR          = .51499E-3
MEAN_MOTION_DOT = .764E-5
MEAN_MOTION_DDOT = 0

