UNKNOWN                 
1 89003U          25319.55414108  .00000717  00000+0  25466-3 0  9998
2 89003  74.0493  64.4739 0014016 133.4339 226.7983 14.36170170627642
UNKNOWN                 
1 89005U          25321.27022692  .00004353  00000+0  99228-3 0  9992
2 89005  97.8403 152.3286 0193059 109.8958 252.3151 14.45409329530412
UNKNOWN                 
1 89029U          25320.45095019  .00009879  00000+0  92667-3 0  9998
2 89029  98.0491 219.0434 0024272  53.3972 306.9475 14.93981842647156
UNKNOWN                 
1 89101U          25321.62412823 -.00000258  00000+0 -64297-3 0  9997
2 89101 100.4592 259.1299 0146637 163.7934 196.7934 13.03998502551571
UNKNOWN                 
1 89132U          25314.37171090  .00002770  00000+0  38444-2 0  9996
2 89132  63.3757  87.9552 2929063 319.6986  21.9360  8.86217925322247
UNKNOWN                 
1 89146U          25321.61183204  .00005083  00000+0  94404-3 0  9995
2 89146  98.2448 250.3523 0094512 133.1933 227.7214 14.62757307625201
UNKNOWN                 
1 89161U          25321.49249502  .00097205  00000+0  27608-2 0  9990
2 89161  97.6623 336.1403 0041769 149.0721 211.2995 15.34931663544701
UNKNOWN                 
1 89172U          25310.55922806  .00030689  00000+0  50523-2 0  9997
2 89172  82.0637 255.8555 0299972  32.7390 329.2000 14.44728547596666
UNKNOWN                 
1 89177U          25318.61950487  .00000162  00000+0  15739-3 0  9997
2 89177  82.9185 289.9724 0031442 219.0179 140.8708 13.73719805 58961
UNKNOWN                 
1 89183U          25318.22694335  .00000953  00000+0  87747-3 0  9994
2 89183  99.2164 229.9572 0129506 232.7148 126.2141 13.81540712603039
UNKNOWN                 
1 89184U          25321.39984661  .00037610  00000+0  50183-2 0  9994
2 89184  98.3906 184.9894 0008090 214.1178 145.9512 14.79428308488420
UNKNOWN                 
1 89213U          25321.39191092  .00000764  00000+0  51499-3 0  9997
2 89213  98.7806 195.8652 0227174 195.9547 163.4375 13.91554302449146
